H1 CPF 01  gfz 2022 04 02 12  5922 terrasarx 
H2 0702601  6201 31698    2022 04 02 12 59 42 2022 04 07 00 00 42   120 1 1  0 0 0
H9
10 0 59672  10062.000000  0    4230835.608   4054943.225  -3630353.880
10 0 59672  10182.000000  0    3979676.267   3557588.241  -4362921.777
10 0 59672  10302.000000  0    3650101.489   3003441.590  -5019072.318
10 0 59672  10422.000000  0    3247013.806   2403526.533  -5587405.260
10 0 59672  10542.000000  0    2776774.672   1769539.027  -6058073.964
10 0 59672  10662.000000  0    2247098.563   1113617.687  -6422945.197
10 0 59672  10782.000000  0    1666922.484    448112.215  -6675727.250
10 0 59672  10902.000000  0    1046255.306   -214645.263  -6812067.861
10 0 59672  11022.000000  0     396005.953   -862564.510  -6829622.605
10 0 59672  11142.000000  0    -272205.473  -1484012.632  -6728088.920
10 0 59672  11262.000000  0    -946249.480  -2068016.607  -6509210.501
10 0 59672  11382.000000  0   -1613702.158  -2604453.050  -6176751.907
10 0 59672  11502.000000  0   -2262068.956  -3084221.789  -5736440.183
10 0 59672  11622.000000  0   -2879013.862  -3499399.966  -5195876.682
10 0 59672  11742.000000  0   -3452593.020  -3843376.448  -4564418.363
10 0 59672  11862.000000  0   -3971487.443  -4110962.174  -3853026.283
10 0 59672  11982.000000  0   -4425229.169  -4298473.888  -3074084.832
10 0 59672  12102.000000  0   -4804417.367  -4403789.853  -2241192.896
10 0 59672  12222.000000  0   -5100918.428  -4426374.904  -1368929.303
10 0 59672  12342.000000  0   -5308044.993  -4367273.983   -472597.022
10 0 59672  12462.000000  0   -5420709.263  -4229073.949    432049.265
10 0 59672  12582.000000  0   -5435546.099  -4015834.139   1329087.679
10 0 59672  12702.000000  0   -5351001.127  -3732985.873   2202719.267
10 0 59672  12822.000000  0   -5167381.727  -3387203.568   3037555.384
10 0 59672  12942.000000  0   -4886870.239  -2986252.039   3818896.208
10 0 59672  13062.000000  0   -4513499.247  -2538813.447   4532995.671
10 0 59672  13182.000000  0   -4053088.589  -2054297.792   5167305.638
10 0 59672  13302.000000  0   -3513148.476  -1542643.769   5710694.407
10 0 59672  13422.000000  0   -2902751.308  -1014114.138   6153639.433
10 0 59672  13542.000000  0   -2232372.579   -479088.102   6488390.759
10 0 59672  13662.000000  0   -1513704.586     52144.084   6709100.003
10 0 59672  13782.000000  0    -759449.064    569577.627   6811915.156
10 0 59672  13902.000000  0      16907.775   1063680.152   6795043.618
10 0 59672  14022.000000  0     801335.853   1525566.750   6658781.564
10 0 59672  14142.000000  0    1579514.148   1947159.966   6405509.039
10 0 59672  14262.000000  0    2337091.253   2321331.034   6039650.326
10 0 59672  14382.000000  0    3059949.804   2642021.146   5567602.174
10 0 59672  14502.000000  0    3734472.288   2904341.642   4997628.452
10 0 59672  14622.000000  0    4347801.012   3104650.668   4339720.478
10 0 59672  14742.000000  0    4888087.575   3240604.566   3605427.871
10 0 59672  14862.000000  0    5344731.577   3311184.010   2807659.065
10 0 59672  14982.000000  0    5708595.509   3316690.604   1960452.138
10 0 59672  15102.000000  0    5972193.508   3258717.682   1078725.297
10 0 59672  15222.000000  0    6129850.300   3140094.049    178007.530
10 0 59672  15342.000000  0    6177823.676   2964801.060   -725843.800
10 0 59672  15462.000000  0    6114388.091   2737865.085  -1616930.915
10 0 59672  15582.000000  0    5939877.258   2465230.493  -2479602.286
10 0 59672  15702.000000  0    5656686.408   2153616.062  -3298734.137
10 0 59672  15822.000000  0    5269233.117   1810356.470  -4059999.235
10 0 59672  15942.000000  0    4783878.614   1443234.122  -4750118.358
10 0 59672  16062.000000  0    4208810.766   1060306.048  -5357087.455
10 0 59672  16182.000000  0    3553895.755    669731.024  -5870378.050
10 0 59672  16302.000000  0    2830500.521    279599.638  -6281110.360
10 0 59672  16422.000000  0    2051289.304   -102228.994  -6582195.350
10 0 59672  16542.000000  0    1230000.819   -468280.928  -6768445.723
10 0 59672  16662.000000  0     381207.837   -811609.612  -6836657.306
10 0 59672  16782.000000  0    -479938.205  -1125923.676  -6785657.012
10 0 59672  16902.000000  0   -1337970.555  -1405698.608  -6616320.295
10 0 59672  17022.000000  0   -2177378.605  -1646271.727  -6331558.578
10 0 59672  17142.000000  0   -2982882.239  -1843918.699  -5936273.684
10 0 59672  17262.000000  0   -3739704.248  -1995910.689  -5437282.783
10 0 59672  17382.000000  0   -4433841.206  -2100552.354  -4843213.264
10 0 59672  17502.000000  0   -5052325.836  -2157198.398  -4164364.564
10 0 59672  17622.000000  0   -5583475.268  -2166248.735  -3412540.266
10 0 59672  17742.000000  0   -6017121.206  -2129122.009  -2600850.787
10 0 59672  17862.000000  0   -6344815.183  -2048207.143  -1743489.065
10 0 59672  17982.000000  0   -6560004.331  -1926794.050   -855483.349
10 0 59672  18102.000000  0   -6658172.196  -1768984.721     47569.288
10 0 59672  18222.000000  0   -6636940.768  -1579586.491    949783.089
10 0 59672  18342.000000  0   -6496129.696  -1363989.792   1835271.700
10 0 59672  18462.000000  0   -6237770.806  -1128034.204   2688437.228
10 0 59672  18582.000000  0   -5866077.848   -877866.029   3494253.432
10 0 59672  18702.000000  0   -5387372.534   -619790.349   4238537.923
10 0 59672  18822.000000  0   -4809966.716   -360122.406   4908205.713
10 0 59672  18942.000000  0   -4144008.320   -105042.019   5491498.362
10 0 59672  19062.000000  0   -3401294.483    139546.339   5978188.676
10 0 59672  19182.000000  0   -2595053.315    368144.131   6359756.044
10 0 59672  19302.000000  0   -1739701.324    575776.734   6629529.566
10 0 59672  19422.000000  0    -850580.865    758097.301   6782799.012
10 0 59672  19542.000000  0      56316.948    911475.159   6816890.996
10 0 59672  19662.000000  0     964639.272   1033066.464   6731212.108
10 0 59672  19782.000000  0    1857965.200   1120866.884   6527258.723
10 0 59672  19902.000000  0    2720101.618   1173744.892   6208592.497
10 0 59672  20022.000000  0    3535377.094   1191455.075   5780782.852
10 0 59672  20142.000000  0    4288929.593   1174631.463   5251314.435
10 0 59672  20262.000000  0    4966980.611   1124761.092   4629462.409
10 0 59672  20382.000000  0    5557095.181   1044138.233   3926137.394
10 0 59672  20502.000000  0    6048420.445    935800.295   3153696.714
10 0 59672  20622.000000  0    6431894.428    803446.091   2325726.899
10 0 59672  20742.000000  0    6700422.370    651338.197   1456803.743
10 0 59672  20862.000000  0    6849016.848    484192.588    562230.118
10 0 59672  20982.000000  0    6874895.357    307057.147   -342240.507
10 0 59672  21102.000000  0    6777534.424    125182.566  -1240690.921
10 0 59672  21222.000000  0    6558676.916    -56110.672  -2117329.243
10 0 59672  21342.000000  0    6222293.749   -231566.431  -2956773.542
10 0 59672  21462.000000  0    5774502.318   -396124.520  -3744326.370
10 0 59672  21582.000000  0    5223443.093   -545046.110  -4466233.904
10 0 59672  21702.000000  0    4579118.089   -674029.446  -5109923.454
10 0 59672  21822.000000  0    3853197.942   -779313.697  -5664215.667
10 0 59672  21942.000000  0    3058801.461   -857770.012  -6119510.253
10 0 59672  22062.000000  0    2210251.597   -906976.891  -6467941.612
10 0 59672  22182.000000  0    1322814.579   -925277.740  -6703502.815
10 0 59672  22302.000000  0     412427.030   -911822.131  -6822139.067
10 0 59672  22422.000000  0    -504586.315   -866588.333  -6821810.153
10 0 59672  22542.000000  0   -1411798.498   -790387.484  -6702521.188
10 0 59672  22662.000000  0   -2292968.072   -684849.336  -6466322.966
10 0 59672  22782.000000  0   -3132323.349   -552389.623  -6117279.164
10 0 59672  22902.000000  0   -3914838.496   -396159.920  -5661404.461
10 0 59672  23022.000000  0   -4626502.244   -219980.190  -5106572.296
10 0 59672  23142.000000  0   -5254571.162    -28255.147  -4462389.649
10 0 59672  23262.000000  0   -5787804.430    174123.786  -3740042.911
10 0 59672  23382.000000  0   -6216676.069    381890.561  -2952112.968
10 0 59672  23502.000000  0   -6533557.616    589527.377  -2112362.311
10 0 59672  23622.000000  0   -6732866.911    791396.671  -1235497.163
10 0 59672  23742.000000  0   -6811180.115    981877.756   -336908.158
10 0 59672  23862.000000  0   -6767299.301   1155505.453    567606.832
10 0 59672  23982.000000  0   -6602275.477   1307107.085   1462126.823
10 0 59672  24102.000000  0   -6319388.306   1431934.686   2330896.476
10 0 59672  24222.000000  0   -5924080.135   1525788.333   3158613.118
10 0 59672  24342.000000  0   -5423845.647   1585127.216   3930704.510
10 0 59672  24462.000000  0   -4828080.839   1607165.809   4633590.150
10 0 59672  24582.000000  0   -4147896.838   1589953.080   5254921.387
10 0 59672  24702.000000  0   -3395903.790   1532432.973   5783796.842
10 0 59672  24822.000000  0   -2585969.339   1434485.018   6210951.006
10 0 59672  24942.000000  0   -1732955.066   1296944.649   6528912.428
10 0 59672  25062.000000  0    -852437.852   1121601.763   6732127.310
10 0 59672  25182.000000  0      39576.389    911178.737   6817049.506
10 0 59672  25302.000000  0     926943.011    669287.951   6782198.077
10 0 59672  25422.000000  0    1793669.553    400369.809   6628181.373
10 0 59672  25542.000000  0    2624202.611    109611.990   6357687.396
10 0 59672  25662.000000  0    3403707.159   -197149.281   5975441.166
10 0 59672  25782.000000  0    4118334.087   -513544.376   5488126.948
10 0 59672  25902.000000  0    4755470.222   -832799.799   4904277.203
10 0 59672  26022.000000  0    5303967.646  -1147879.936   4234129.378
10 0 59672  26142.000000  0    5754347.115  -1451638.169   3489450.743
10 0 59672  26262.000000  0    6098971.708  -1736974.633   2683333.897
10 0 59672  26382.000000  0    6332185.474  -1996996.429   1829965.562
10 0 59672  26502.000000  0    6450413.715  -2225176.740    944373.420
99
